POLYTECH UNIVERSE-5 (RS70S)
1 61745U 24199L   26189.14101003  .00046172  00000-0  48798-3 0  9993
2 61745  97.2923  67.5034 0006409 163.2510 196.8962 15.64038038140957
COLIBRI-S (RS67S)
1 61746U 24199M   26189.13301472  .00014378  00000-0  27045-3 0  9990
2 61746  97.2968  63.1870 0008053 187.5419 172.5712 15.48630639140659
POLYTECH UNIVERSE-4 (RS71S)
1 61747U 24199N   26189.15182418  .00012691  00000-0  25848-3 0  9995
2 61747  97.2972  62.4166 0008527 188.5040 171.6067 15.46347874140604
SITRO-AIS-44
1 61748U 24199P   26189.14199530  .00075241  00000-0  56945-3 0  9990
2 61748  97.2838  69.1478 0006275 157.8306 202.3230 15.72156559141071
VIZARD-ION (RS68S)
1 61749U 24199Q   26189.17173869  .00026297  00000-0  36967-3 0  9990
2 61749  97.2954  65.8539 0006798 172.7660 187.3694 15.56644933140830
MTUSI-1
1 61750U 24199R   26189.17195225  .00028584  00000-0  39881-3 0  9991
2 61750  97.2925  65.3024 0006445 183.2616 176.8598 15.56836121140817
VLADIVOSTOK-1
1 61751U 24199S   26189.18375326  .00005972  00000-0  16606-3 0  9991
2 61751  97.2973  58.4850 0008235 222.1673 137.8939 15.37195531140364
SITRO-AIS-14
1 61752U 24199T   26189.16625956  .00002349  00000-0  20462-3 0  9997
2 61752  97.3231  27.2666 0006262  14.9062 345.2344 14.97775932138264
HORS-3 (RS81S)
1 61753U 24199U   26189.18714865  .00028553  00000-0  40305-3 0  9991
2 61753  97.2949  65.4646 0006241 178.6734 181.4539 15.56522250140823
HORS-4 (RS82S)
1 61754U 24199V   26189.14491295  .00039079  00000-0  45078-3 0  9994
2 61754  97.2889  66.7665 0006184 168.5820 191.5579 15.61820116140916
SITRO-AIS-43
1 61755U 24199W   26189.14144725  .00079844  00000-0  58433-3 0  9991
2 61755  97.2860  69.3406 0005708 142.7037 217.4624 15.72941661141082
SITRO-AIS-42
1 61756U 24199X   26189.19228271  .00072421  00000-0  56876-3 0  9999
2 61756  97.2854  69.4183 0004267 188.4997 171.6194 15.71296845141090
SITRO-AIS-20
1 61758U 24199Z   26189.14364551  .00002018  00000-0  17518-3 0  9993
2 61758  97.3212  27.4197 0006006   9.0357 351.0974 14.98046290138272
SITRO-AIS-19
1 61759U 24199AA  26189.14744704  .00001616  00000-0  14127-3 0  9992
2 61759  97.3216  27.4178 0005854  11.6786 348.4572 14.98021556138273
SITRO-AIS-41
1 61760U 24199AB  26189.17844795  .00073751  00000-0  57909-3 0  9992
2 61760  97.2878  69.0602 0006064 153.2451 206.9126 15.71284943141065
NORBY-3
1 61761U 24199AC  26189.14617597  .00031414  00000-0  40771-3 0  9997
2 61761  97.2883  66.1475 0006100 167.3732 192.7678 15.58761108140877
SIT-HSE
1 61763U 24199AE  26189.17705238  .00026085  00000-0  40103-3 0  9999
2 61763  97.2943  65.7954 0005099 173.2437 186.8887 15.54211794140847
SIT-2086
1 61764U 24199AF  26189.12657179  .00025898  00000-0  39203-3 0  9995
2 61764  97.2906  65.8063 0007454 166.7038 193.4414 15.54623144137684
HOD-HOD
1 61768U 24199AK  26189.13190459  .00015870  00000-0  27818-3 0  9991
2 61768  97.2936  64.1895 0005168 190.1307 169.9841 15.50642935137582
KOSAR
1 61769U 24199AL  26189.18499698  .00024209  00000-0  35662-3 0  9996
2 61769  97.2911  65.5815 0004676 173.2899 186.8419 15.55402284137680
SITRO-AIS-48
1 61771U 24199AN  26189.15075485  .00036893  00000-0  45437-3 0  9993
2 61771  97.2893  65.5747 0007098 188.3793 171.7347 15.60111074137691
HYPERVIEW-1G (RS66S)
1 61772U 24199AP  26189.16618947  .00176113  00000-0  81870-3 0  9992
2 61772  97.2823  70.0413 0007889 163.1787 196.9745 15.82872868137980
SITRO-AIS-47
1 61773U 24199AQ  26189.17984236  .00038402  00000-0  45773-3 0  9991
2 61773  97.2875  65.8282 0006669 182.2258 177.8971 15.60965473137715
SITRO-AIS-46
1 61774U 24199AR  26189.14741793  .00043747  00000-0  48425-3 0  9993
2 61774  97.2849  66.2587 0006447 183.1821 176.9398 15.62862150137746
CSTP-2.2
1 61775U 24199AS  26189.14023138  .00010050  00000-0  21401-3 0  9996
2 61775  97.2960  61.5415 0014091 194.2533 165.8320 15.45037991137409
SITRO-AIS-40
1 61776U 24199AT  26189.18520670  .00044697  00000-0  48758-3 0  9992
2 61776  97.2855  66.3750 0006340 181.1309 178.9937 15.63235371140902
CSTP-2.1
1 61777U 24199AU  26189.15207941  .00011820  00000-0  24014-3 0  9994
2 61777  97.2961  61.8238 0014321 192.6504 167.4388 15.46367506137427
SITRO-AIS-39
1 61778U 24199AV  26189.14262330  .00037912  00000-0  46926-3 0  9993
2 61778  97.2861  65.3903 0006722 183.7490 176.3718 15.59977000137680
ALTAIR (RS65S)
1 61779U 24199AW  26189.13770038  .00004718  00000-0  13064-3 0  9997
2 61779  97.3006  58.3528 0011329 223.7492 136.2856 15.37415271140331
SITRO-AIS-37
1 61780U 24199AX  26189.06650516  .00037696  00000-0  44491-3 0  9998
2 61780  97.2892  65.7467 0007118 185.3786 174.7396 15.61222418137696
ASRTU-1 (RS64S/BJ2CR)
1 61781U 24199AY  26189.14458733  .00004963  00000-0  14367-3 0  9995
2 61781  97.2977  57.6276 0012324 227.7749 132.2450 15.35983036137145
SAMSAT-IONOSPHERE (RS75S)
1 61784U 24199BB  26189.18271089  .00034947  00000-0  43874-3 0  9999
2 61784  97.2912  65.5887 0008318 183.8928 176.2265 15.59603739140839
RTU MIREA-1 (RS51S)
1 61785U 24199BC  26189.15738508  .00045657  00000-0  49066-3 0  9990
2 61785  97.2900  66.5098 0008467 177.9486 182.1810 15.63595036137743
SITRO-AIS-38
1 61786U 24199BD  26189.11534866  .00019106  00000-0  34024-3 0  9996
2 61786  97.2911  63.5650 0008445 197.0923 163.0046 15.50130665137559
2024-199BE (? SWSU-60)
1 61787U 24199BE  26189.15496542  .00005682  00000-0  15968-3 0  9999
2 61787  97.2985  57.9655 0011899 225.0240 135.0041 15.36851361140313
SITRO-AIS-45
1 61788U 24199BF  26189.15575883  .00037119  00000-0  45405-3 0  9995
2 61788  97.2860  65.4939 0006703 183.7838 176.3369 15.60292566137675
SITRO-AIS-17
1 61789U 24199BG  26189.13503663  .00001220  00000-0  10767-3 0  9998
2 61789  97.3224  27.4636 0006373  13.6146 346.5248 14.98055634135172
SITRO-AIS-18
1 61790U 24199BH  26189.14900179  .00002172  00000-0  18845-3 0  9996
2 61790  97.3213  27.4203 0005950  13.8392 346.2993 14.98009341135175
INNOCUBE (TUBSAT-31)
1 62616U 25009H   26188.79919234  .00004550  00000-0  17552-3 0  9993
2 62616  97.3895 268.5782 0004390 252.2021 107.8739 15.26796935 81964
OTP-2
1 63235U 25052AB  26188.18590456  .00005199  00000-0  21569-3 0  9996
2 63235  97.3841  80.3179 0008297  92.6195 267.5993 15.24265879 72918
IONOSFERA-M 03
1 64876U 25155A   26188.86969785  .00000047  00000-0  40948-4 0  9992
2 64876  98.6035 150.2552 0002042 123.4104 236.7269 14.21489994 49343
IONOSFERA-M 04
1 64877U 25155B   26188.83411568  .00000047  00000-0  41060-4 0  9997
2 64877  98.6034 150.1376 0001676 106.8270 253.3092 14.21492356 49331
INNOSAT16 (RS92S7)
1 64878U 25155C   26188.72902617  .00004247  00000-0  16931-3 0  9990
2 64878  97.4576 155.7951 0012389 110.6641 249.5926 15.25683455 83808
GEOSCAN-6 (RS92S6)
1 64879U 25155D   26188.77848903  .00007191  00000-0  24570-3 0  9992
2 64879  97.4566 157.4162 0009987 102.9015 257.3342 15.30556496 83911
GEOSCAN 1 (RS92S1)
1 64880U 25155E   26188.77265334  .00007270  00000-0  24356-3 0  9995
2 64880  97.4563 157.5767 0009900 102.9517 257.2830 15.31193098 83922
239ALFEROV (RS61S)
1 64881U 25155F   26188.77728484  .00009945  00000-0  30885-3 0  9991
2 64881  97.4563 158.2139 0009637 102.4395 257.7926 15.33525408 83961
CSTP-4.3
1 64882U 25155G   26188.76749201  .00006229  00000-0  21774-3 0  9990
2 64882  97.4592 157.3649 0009412 103.7798 256.4490 15.29876234 83909
CSTP-4.2
1 64883U 25155H   26188.76758558  .00006000  00000-0  20990-3 0  9992
2 64883  97.4582 157.3387 0009413  99.7084 260.5220 15.29864064 83906
CSTP-4.4
1 64884U 25155J   26188.76705090  .00006372  00000-0  22265-3 0  9995
2 64884  97.4578 157.3299 0009820  94.9746 265.2615 15.29876911 83902
ASTROLINE-N3
1 64886U 25155L   26188.75245734  .00024662  00000-0  55905-3 0  9999
2 64886  97.4469 160.0948 0009496  94.9221 265.3111 15.43033464 84101
ASTROLINE-N2
1 64888U 25155N   26188.73877201  .00023161  00000-0  52345-3 0  9997
2 64888  97.4475 160.1460 0009401  93.7623 266.4699 15.43137407 84104
GEOSCAN 2 (RS92S2)
1 64890U 25155Q   26188.76277843  .00007461  00000-0  24792-3 0  9999
2 64890  97.4562 157.7273 0009264  92.7361 267.4940 15.31451973 83937
GEOSCAN-5 (RS92S5)
1 64891U 25155R   26188.76208523  .00009233  00000-0  28425-3 0  9995
2 64891  97.4555 158.3439 0008611 106.2522 253.9668 15.33835518 83970
GEOSCAN-4 (RS92S4)
1 64892U 25155S   26188.74415206  .00010372  00000-0  31735-3 0  9996
2 64892  97.4559 158.3803 0008573 106.2132 254.0054 15.33998161 83979
GEOSCAN-3 (RS92S3)
1 64893U 25155T   26188.78264885  .00012678  00000-0  36198-3 0  9995
2 64893  97.4547 158.9101 0008576 106.2732 253.9456 15.36126275 84015
INNOSAT3 (RS92S0)
1 64894U 25155U   26188.78472219  .00028558  00000-0  59730-3 0  9999
2 64894  97.4491 160.7965 0008297 106.8639 253.3520 15.45401997 84142
CSTP-4.1
1 64895U 25155V   26188.76724644  .00006207  00000-0  21693-3 0  9994
2 64895  97.4587 157.3464 0009340 103.0613 257.1670 15.29882526 83898
POLYTECH UNIVERSE-3 (RS46S)
1 57191U 23091AB  26189.15337233  .00003308  00000-0  15939-3 0  9995
2 57191  97.5036 246.8059 0016619  60.4652 299.8237 15.19321678167136
CSTP-1.1
1 57202U 23091AN  26189.15301647  .00002995  00000-0  14503-3 0  9995
2 57202  97.5103 247.8460 0010220  45.1366 315.0697 15.19302888167149
CSTP-1.2
1 57186U 23091W   26189.18179260  .00005319  00000-0  18925-3 0  9998
2 57186  97.5138 255.6528 0018185  24.3383 335.8712 15.29262342167662
MULE-4T
1 67286U 25313AQ  26189.14539273  .00004640  00000-0  19114-3 0  9996
2 67286  97.3927 263.7984 0007950 280.8078  79.2264 15.24564667 29165
SCORPION (RS89S)
1 67293U 25313AX  26188.78027001  .00002636  00000-0  11513-3 0  9992
2 67293  97.3929 263.2218 0009289 276.0211  83.9967 15.22968673 29090
GALAPAGOS-UTE-SWSU
1 67279U 25313AH  26188.77225774  .00004357  00000-0  18737-3 0  9999
2 67279  97.3912 263.0614 0012384 292.9933  66.9997 15.23102257 29084
